[{"OBJECT_NAME":"FLORIPASAT-1","OBJECT_ID":"2019-093G","EPOCH":"2026-03-09T23:35:55.317696","MEAN_MOTION":15.02721611,"ECCENTRICITY":0.00131238,"INCLINATION":97.7908,"RA_OF_ASC_NODE":162.596,"ARG_OF_PERICENTER":52.6692,"MEAN_ANOMALY":307.5727,"EPHEMERIS_TYPE":0,"CLASSIFICATION_TYPE":"U","NORAD_CAT_ID":44885,"ELEMENT_SET_NO":999,"REV_AT_EPOCH":33774,"BSTAR":0.00066057159,"MEAN_MOTION_DOT":8.782e-5,"MEAN_MOTION_DDOT":0},{"OBJECT_NAME":"STARLINK-5561","OBJECT_ID":"2023-058W","EPOCH":"2026-03-09T23:32:34.414368","MEAN_MOTION":15.01265447,"ECCENTRICITY":0.00011974,"INCLINATION":97.6032,"RA_OF_ASC_NODE":70.4783,"ARG_OF_PERICENTER":140.3947,"MEAN_ANOMALY":219.7365,"EPHEMERIS_TYPE":0,"CLASSIFICATION_TYPE":"U","NORAD_CAT_ID":56337,"ELEMENT_SET_NO":999,"REV_AT_EPOCH":15817,"BSTAR":-9.0581683e-5,"MEAN_MOTION_DOT":-1.222e-5,"MEAN_MOTION_DDOT":0}]
